     3.03           N: GNSS NAV DATA    R: GLONASS          RINEX VERSION / TYPE
sbf2rin-12.3.1                          20180727 120844 UTC PGM / RUN BY / DATE 
    18                                                      LEAP SECONDS        
                                                            END OF HEADER       
R12 2018 07 26 11 15 00-3.419164568186E-05-0.000000000000E+00 3.852000000000E+05
     2.958435546875E+03 3.130964279175E+00 2.793967723846E-09 0.000000000000E+00
    -1.086653125000E+04-1.713829040527E-01 9.313225746155E-10-1.000000000000E+00
     2.288689062500E+04-4.800357818604E-01-9.313225746155E-10 0.000000000000E+00
R10 2018 07 26 11 15 00 2.856738865376E-05 0.000000000000E+00 3.852000000000E+05
     2.542597460938E+04-1.873941421509E-01 3.725290298462E-09 0.000000000000E+00
    -6.780566406250E+01-1.963768005371E-01 0.000000000000E+00-7.000000000000E+00
    -1.343643554688E+03-3.592120170593E+00 2.793967723846E-09 0.000000000000E+00
R05 2018 07 26 11 15 00-4.619453102350E-05-5.456968210638E-12 3.852000000000E+05
     6.605831054688E+03-8.439950942993E-01 2.793967723846E-09 1.000000000000E+00
     2.119934228516E+04-1.500572204590E+00-1.862645149231E-09 1.000000000000E+00
     1.254299316406E+04 2.980638504028E+00-0.000000000000E+00 0.000000000000E+00
R04 2018 07 26 11 15 00 2.699587494135E-04 9.094947017729E-13 3.852300000000E+05
    -6.059171875000E+03-1.614306449890E+00 9.313225746155E-10 0.000000000000E+00
     1.046701708984E+04-2.613907814026E+00-9.313225746155E-10 6.000000000000E+00
     2.248104882813E+04 7.812385559082E-01-1.862645149231E-09 0.000000000000E+00
R22 2018 07 26 11 15 00-5.701463669538E-05-1.818989403546E-12 3.852300000000E+05
     1.428729589844E+04-6.411705017090E-01 2.793967723846E-09 0.000000000000E+00
    -1.984379296875E+04 7.542810440063E-01 1.862645149231E-09-3.000000000000E+00
     7.034624511719E+03 3.439571380615E+00 9.313225746155E-10 0.000000000000E+00
R21 2018 07 26 11 45 00 5.290843546391E-06-1.818989403546E-12 3.870000000000E+05
     1.120193457031E+04-1.133390426636E+00 3.725290298462E-09 0.000000000000E+00
    -2.099755859375E+01 2.930287361145E+00-0.000000000000E+00 4.000000000000E+00
     2.291264941406E+04 5.543060302734E-01-0.000000000000E+00 0.000000000000E+00
R11 2018 07 26 11 45 00-3.575906157494E-05-9.094947017729E-13 3.870000000000E+05
     2.160825146484E+04 1.385518074036E+00 4.656612873077E-09 0.000000000000E+00
    -8.609634765625E+03-3.648300170898E-01 0.000000000000E+00 0.000000000000E+00
     1.042500830078E+04-3.182748794556E+00 9.313225746155E-10 0.000000000000E+00
R12 2018 07 26 11 45 00-3.419164568186E-05-0.000000000000E+00 3.870000000000E+05
     8.373651367188E+03 2.837369918823E+00 3.725290298462E-09 0.000000000000E+00
    -1.156337500000E+04-5.861749649048E-01 0.000000000000E+00-1.000000000000E+00
     2.114967041016E+04-1.437511444092E+00-0.000000000000E+00 0.000000000000E+00
R20 2018 07 26 11 45 00-3.464901819825E-04-9.094947017729E-13 3.870000000000E+05
     2.113044433594E+03-8.117561340332E-01 1.862645149231E-09 0.000000000000E+00
     1.735402392578E+04 2.419284820557E+00-1.862645149231E-09 2.000000000000E+00
     1.859554638672E+04-2.161081314087E+00-9.313225746155E-10 0.000000000000E+00
R05 2018 07 26 11 45 00-4.620570689440E-05-5.456968210638E-12 3.870000000000E+05
     4.516423828125E+03-1.481588363647E+00 1.862645149231E-09 0.000000000000E+00
     1.813401611328E+04-1.860095977783E+00-1.862645149231E-09 1.000000000000E+00
     1.735354980469E+04 2.329708099365E+00-9.313225746155E-10 0.000000000000E+00
R22 2018 07 26 11 45 00-5.701836198568E-05-1.818989403546E-12 3.870000000000E+05
     1.295380908203E+04-7.960872650146E-01 3.725290298462E-09 0.000000000000E+00
    -1.772804931641E+04 1.591211318970E+00 9.313225746155E-10-3.000000000000E+00
     1.287130615234E+04 3.003278732300E+00 0.000000000000E+00 0.000000000000E+00
R04 2018 07 26 11 45 00 2.699615433812E-04 9.094947017729E-13 3.870000000000E+05
    -9.357085937500E+03-2.022452354431E+00 0.000000000000E+00 0.000000000000E+00
     5.909478515625E+03-2.406583786011E+00-0.000000000000E+00 6.000000000000E+00
     2.300219384766E+04-2.059707641602E-01-2.793967723846E-09 0.000000000000E+00
R10 2018 07 26 11 45 00 2.856738865376E-05 0.000000000000E+00 3.870000000000E+05
     2.428329345703E+04-1.067997932434E+00 2.793967723846E-09 0.000000000000E+00
    -3.008540039063E+02-2.259635925293E-02-0.000000000000E+00-7.000000000000E+00
    -7.673253906250E+03-3.394898414612E+00 2.793967723846E-09 0.000000000000E+00
R06 2018 07 26 11 45 00 1.367125660181E-04 0.000000000000E+00 3.871800000000E+05
     1.633803515625E+04 3.274726867676E-02 1.862645149231E-09 0.000000000000E+00
     1.959083447266E+04-1.755905151367E-01-1.862645149231E-09-4.000000000000E+00
     8.117783203125E+02 3.553837776184E+00 9.313225746155E-10 0.000000000000E+00
R13 2018 07 26 11 45 00-1.293234527111E-05-0.000000000000E+00 3.881700000000E+05
    -1.315554492188E+04 2.787910461426E+00 0.000000000000E+00 0.000000000000E+00
    -7.413138671875E+03-4.169626235962E-01 9.313225746155E-10-2.000000000000E+00
     2.054715283203E+04 1.631935119629E+00-2.793967723846E-09 0.000000000000E+00
R21 2018 07 26 12 15 00 5.287118256092E-06-1.818989403546E-12 3.888000000000E+05
     9.551191894531E+03-6.849174499512E-01 2.793967723846E-09 0.000000000000E+00
     5.434182128906E+03 3.080648422241E+00-9.313225746155E-10 4.000000000000E+00
     2.301140234375E+04-4.453668594360E-01-0.000000000000E+00 0.000000000000E+00
R12 2018 07 26 12 15 00-3.419257700443E-05-0.000000000000E+00 3.888000000000E+05
     1.301529052734E+04 2.282295227051E+00 4.656612873077E-09 0.000000000000E+00
    -1.288803564453E+04-8.539619445801E-01-0.000000000000E+00-1.000000000000E+00
     1.777918310547E+04-2.283063888550E+00 0.000000000000E+00 0.000000000000E+00
R22 2018 07 26 12 15 00-5.702208727598E-05-1.818989403546E-12 3.888000000000E+05
     1.157728662109E+04-6.927289962769E-01 3.725290298462E-09 0.000000000000E+00
    -1.417051123047E+04 2.336746215820E+00 0.000000000000E+00-3.000000000000E+00
     1.770621289063E+04 2.333909034729E+00 0.000000000000E+00 0.000000000000E+00
R05 2018 07 26 12 15 00-4.621688276529E-05-5.456968210638E-12 3.888000000000E+05
     1.291066894531E+03-2.087611198425E+00 9.313225746155E-10 0.000000000000E+00
     1.467021142578E+04-1.942472457886E+00-1.862645149231E-09 1.000000000000E+00
     2.082159179688E+04 1.498662948608E+00-9.313225746155E-10 0.000000000000E+00
R20 2018 07 26 12 15 00-3.464920446277E-04-9.094947017729E-13 3.888000000000E+05
     1.137132324219E+03-2.894449234009E-01 0.000000000000E+00 0.000000000000E+00
     2.129127783203E+04 1.910511970520E+00-1.862645149231E-09 2.000000000000E+00
     1.403829687500E+04-2.869658470154E+00-9.313225746155E-10 0.000000000000E+00
R04 2018 07 26 12 15 00 2.699652686715E-04 9.094947017729E-13 3.888000000000E+05
    -1.321520800781E+04-2.223677635193E+00 0.000000000000E+00 0.000000000000E+00
     1.939505371094E+03-1.973423004150E+00 0.000000000000E+00 6.000000000000E+00
     2.174893408203E+04-1.177583694458E+00-2.793967723846E-09 0.000000000000E+00
R13 2018 07 26 12 15 00-1.293327659369E-05-0.000000000000E+00 3.888300000000E+05
    -7.927580566406E+03 2.969810485840E+00 9.313225746155E-10 0.000000000000E+00
    -8.608061035156E+03-9.119691848755E-01 0.000000000000E+00-2.000000000000E+00
     2.265150048828E+04 6.909780502319E-01-1.862645149231E-09 0.000000000000E+00
R11 2018 07 26 12 15 00-3.576185554266E-05-9.094947017729E-13 3.888600000000E+05
     2.333697216797E+04 5.275869369507E-01 3.725290298462E-09 0.000000000000E+00
    -9.258700683594E+03-3.149843215942E-01-0.000000000000E+00 0.000000000000E+00
     4.366231933594E+03-3.505436897278E+00 1.862645149231E-09 0.000000000000E+00
R06 2018 07 26 12 15 00 1.367134973407E-04 0.000000000000E+00 3.888600000000E+05
     1.581490771484E+04-6.361169815063E-01 1.862645149231E-09 0.000000000000E+00
     1.873079150391E+04-7.458562850952E-01-2.793967723846E-09-4.000000000000E+00
     7.094818847656E+03 3.382043838501E+00 0.000000000000E+00 0.000000000000E+00
R07 2018 07 26 12 15 00-4.331581294537E-05-0.000000000000E+00 3.905100000000E+05
     2.012570019531E+04 1.101757049561E+00 1.862645149231E-09 0.000000000000E+00
     1.211847119141E+04 8.211727142334E-01-1.862645149231E-09 5.000000000000E+00
    -9.941916992188E+03 3.215440750122E+00 1.862645149231E-09 0.000000000000E+00
R21 2018 07 26 12 45 00 5.283392965794E-06-1.818989403546E-12 3.906000000000E+05
     8.760368164063E+03-1.963911056519E-01 1.862645149231E-09 0.000000000000E+00
     1.088195019531E+04 2.920302391052E+00-1.862645149231E-09 4.000000000000E+00
     2.132979931641E+04-1.411005973816E+00-9.313225746155E-10 0.000000000000E+00
R22 2018 07 26 12 45 00-5.702581256628E-05-9.094947017729E-13 3.906000000000E+05
     1.058896582031E+04-3.756837844849E-01 3.725290298462E-09 0.000000000000E+00
    -9.435840332031E+03 2.883156776428E+00-9.313225746155E-10-3.000000000000E+00
     2.116503173828E+04 1.484426498413E+00-0.000000000000E+00 0.000000000000E+00
R12 2018 07 26 12 45 00-3.419257700443E-05-0.000000000000E+00 3.906000000000E+05
     1.648201513672E+04 1.548244476318E+00 4.656612873077E-09 0.000000000000E+00
    -1.450405761719E+04-9.004230499268E-01-9.313225746155E-10-1.000000000000E+00
     1.303699609375E+04-2.951820373535E+00 9.313225746155E-10 0.000000000000E+00
R06 2018 07 26 12 45 00 1.367153599858E-04 0.000000000000E+00 3.906000000000E+05
     1.399872167969E+04-1.386534690857E+00 1.862645149231E-09 0.000000000000E+00
     1.704598242188E+04-1.083794593811E+00-2.793967723846E-09-4.000000000000E+00
     1.282999121094E+04 2.949020385742E+00-0.000000000000E+00 0.000000000000E+00
